INMARSAT 4-F2 (SOUTHPA*)
1 28899U 05044A   26182.60313309 -.00000253  00000+0  00000+0 0  9992
2 28899   5.1123  43.6647 0003269  46.3818 190.2243  1.00270882 75663
GSAT-8 (GAGAN/PRN 127)  
1 37605U 11022A   26182.59541861  .00000093  00000+0  00000+0 0  9995
2 37605   2.1663  81.6591 0001822 174.3523 293.0828  1.00272609 53365
LUCH 5A (SDCM/PRN 140)  
1 37951U 11074B   26182.59367740 -.00000045  00000+0  00000+0 0  9996
2 37951   8.7883  73.5986 0002712  41.0026 185.7060  1.00272770 53195
SES-5 (EGNOS/PRN 136)   
1 38652U 12036A   26182.15775559  .00000044  00000+0  00000+0 0  9995
2 38652   0.0474 317.1039 0002296 142.3984 241.4886  1.00272231 44598
GSAT-10 (GAGAN/PRN 128) 
1 38779U 12051B   26182.45841394 -.00000154  00000+0  00000+0 0  9999
2 38779   0.0524 249.9589 0008136 202.8463  74.7542  1.00270895 50248
LUCH 5B (SDCM/PRN 125)  
1 38977U 12061A   26182.91524884 -.00000132  00000+0  00000+0 0  9999
2 38977  10.5140  49.7329 0003164 137.6484  45.8282  1.00272799 49759
ASTRA 5B (EGNOS/PRN 123)
1 39617U 14011B   26182.58917859  .00000148  00000+0  00000+0 0  9995
2 39617   0.0796 301.5087 0002249 162.9402  50.8008  1.00274198 44815
LUCH 5V (SDCM/PRN 141)  
1 39727U 14023A   26182.60332941 -.00000261  00000+0  00000+0 0  9993
2 39727   5.1671  69.6028 0002607  55.2000 106.7992  1.00270445 44508
GSAT-15 (GAGAN/PRN 139) 
1 41028U 15065A   26182.46711985 -.00000247  00000+0  00000+0 0  9994
2 41028   0.0436 255.5440 0004508 184.2497 101.3855  1.00269403 38949
EUTELSAT 117 WEST B (W*)
1 41589U 16038B   26182.47753068 -.00000001  00000+0  00000+0 0  9994
2 41589   0.0045 199.2910 0000120  75.4259  59.7184  1.00272874 36806
SES-15 (WAAS/PRN 133)   
1 42709U 17026A   26182.34513128  .00000070  00000+0  00000+0 0  9999
2 42709   0.0221 331.7918 0001151 169.2992 133.4012  1.00271672  7576
QZS-2 (QZSS/PRN 194)    
1 42738U 17028A   26182.47193832 -.00000110  00000+0  00000+0 0  9999
2 42738  39.4058 242.9433 0758746 269.4314  79.2051  1.00280245  7764
QZS-3 (QZSS/PRN 199)    
1 42917U 17048A   26182.53842622 -.00000338  00000+0  00000+0 0  9997
2 42917   0.0753 137.4065 0002267 320.8305 142.2185  1.00269544 32407
QZS-4 (QZSS/PRN 195)    
1 42965U 17062A   26181.32690646 -.00000331  00000+0  00000+0 0  9992
2 42965  40.1009 343.3188 0746709 268.3129 282.6055  1.00295775 31936
BEIDOU-3 G1 (PRN 130)   
1 43683U 18085A   26182.61621296 -.00000101  00000+0  00000+0 0  9999
2 43683   2.9036  96.9889 0008574 353.0352 211.3972  1.00271089 28205
EUTELSAT 5 WEST B (EGN*)
1 44624U 19067A   26182.15584891 -.00000031  00000+0  00000+0 0  9996
2 44624   0.0719 328.8712 0003382 131.6114 229.8372  1.00272939 24577
BEIDOU-3 G2 (PRN 144)   
1 45344U 20017A   26182.52913639 -.00000132  00000+0  00000+0 0  9992
2 45344   2.8921  47.5535 0002596  44.2336  98.3784  1.00271769 23408
BEIDOU-3 G3 (PRN 143)   
1 45807U 20040A   26182.60644942 -.00000345  00000+0  00000+0 0  9995
2 45807   2.4814  67.4760 0002508 332.7964 208.2731  1.00272261 22215
GALAXY 30 (WAAS/PRN 135)
1 46114U 20056C   26182.56673554  .00000047  00000+0  00000+0 0  9998
2 46114   0.0158  40.6278 0002239  58.0496 259.9584  1.00272953 21438
QZS-1R (QZSS/PRN 196)   
1 49336U 21096A   26182.60904943 -.00000278  00000+0  00000+0 0  9993
2 49336  37.4893  79.3703 0756025 272.0403 280.4502  1.00251244 17157
QZS-6 (QZSS/PRN 200)    
1 62876U 25023A   26182.60630424 -.00000223  00000+0  00000+0 0  9991
2 62876   0.0465 283.6971 0002096 190.5494 114.2143  1.00272068  5097
